start=new Date('2021-09-09T00:00:00.000Z').valueOf();
sats=[{"REF_FRAME":"TEME","INCLINATION":"53.0529","PERIOD":"95.592","ELEMENT_SET_NO":"999","RA_OF_ASC_NODE":"51.5601","CENTER_NAME":"EARTH","FILE":"3111252","ARG_OF_PERICENTER":"105.6527","BSTAR":"-0.00004076800000","TLE_LINE1":"1 47831U 21018AW  21251.86151572 -.00000889  00000-0 -40768-4 0  9997","RCS_SIZE":"LARGE","EPHEMERIS_TYPE":"0","EPOCH":"2021-09-08T20:40:34.958208","OBJECT_NAME":"STARLINK-2420","TIME_SYSTEM":"UTC","PERIAPSIS":"545.842","OBJECT_TYPE":"PAYLOAD","TLE_LINE2":"2 47831  53.0529  51.5601 0001961 105.6527 254.4678 15.06404429 29248","MEAN_MOTION_DOT":"-0.00000889","SITE":"AFETR","MEAN_MOTION_DDOT":"0.0000000000000","REV_AT_EPOCH":"2924","CLASSIFICATION_TYPE":"U","SEMIMAJOR_AXIS":"6925.335","LAUNCH_DATE":"2021-03-11","MEAN_ANOMALY":"254.4678","MEAN_MOTION":"15.06404429","GP_ID":"184348061","ECCENTRICITY":"0.00019610","OBJECT_ID":"2021-018AW","APOAPSIS":"548.558","NORAD_CAT_ID":"47831","MEAN_ELEMENT_THEORY":"SGP4","DECAY_DATE":null,"COUNTRY_CODE":"US"},{"INCLINATION":"53.0561","PERIOD":"95.593","ELEMENT_SET_NO":"999","REF_FRAME":"TEME","FILE":"3111252","ARG_OF_PERICENTER":"84.3248","RA_OF_ASC_NODE":"66.4828","CENTER_NAME":"EARTH","EPHEMERIS_TYPE":"0","RCS_SIZE":"LARGE","TLE_LINE1":"1 47832U 21018AX  21251.87766381 -.00000744  00000-0 -31013-4 0  9992","BSTAR":"-0.00003101300000","EPOCH":"2021-09-08T21:03:50.153184","OBJECT_NAME":"STARLINK-2422","TIME_SYSTEM":"UTC","MEAN_MOTION_DOT":"-0.00000744","TLE_LINE2":"2 47832  53.0561  66.4828 0002162  84.3248 275.7988 15.06392461 28980","SITE":"AFETR","MEAN_MOTION_DDOT":"0.0000000000000","PERIAPSIS":"545.739","OBJECT_TYPE":"PAYLOAD","REV_AT_EPOCH":"2898","SEMIMAJOR_AXIS":"6925.372","CLASSIFICATION_TYPE":"U","MEAN_ANOMALY":"275.7988","MEAN_MOTION":"15.06392461","LAUNCH_DATE":"2021-03-11","APOAPSIS":"548.734","NORAD_CAT_ID":"47832","DECAY_DATE":null,"MEAN_ELEMENT_THEORY":"SGP4","COUNTRY_CODE":"US","ECCENTRICITY":"0.00021620","GP_ID":"184348311","OBJECT_ID":"2021-018AX"},{"ELEMENT_SET_NO":"999","PERIOD":"95.592","INCLINATION":"53.0561","REF_FRAME":"TEME","ARG_OF_PERICENTER":"83.9966","FILE":"3111252","RA_OF_ASC_NODE":"66.3662","CENTER_NAME":"EARTH","EPHEMERIS_TYPE":"0","TLE_LINE1":"1 47833U 21018AY  21251.90345932 -.00000458  00000-0 -11820-4 0  9998","BSTAR":"-0.00001182000000","RCS_SIZE":"LARGE","TIME_SYSTEM":"UTC","OBJECT_NAME":"STARLINK-2423","EPOCH":"2021-09-08T21:40:58.885248","MEAN_MOTION_DDOT":"0.0000000000000","SITE":"AFETR","TLE_LINE2":"2 47833  53.0561  66.3662 0001954  83.9966 276.1246 15.06398099 29049","MEAN_MOTION_DOT":"-0.00000458","OBJECT_TYPE":"PAYLOAD","PERIAPSIS":"545.866","CLASSIFICATION_TYPE":"U","SEMIMAJOR_AXIS":"6925.354","REV_AT_EPOCH":"2904","MEAN_MOTION":"15.06398099","MEAN_ANOMALY":"276.1246","LAUNCH_DATE":"2021-03-11","COUNTRY_CODE":"US","DECAY_DATE":null,"MEAN_ELEMENT_THEORY":"SGP4","NORAD_CAT_ID":"47833","APOAPSIS":"548.573","OBJECT_ID":"2021-018AY","GP_ID":"184348562","ECCENTRICITY":"0.00019540"},{"EPHEMERIS_TYPE":"0","BSTAR":"-0.00005083500000","TLE_LINE1":"1 47834U 21018AZ  21251.91452792 -.00001039  00000-0 -50835-4 0  9998","RCS_SIZE":"LARGE","TIME_SYSTEM":"UTC","OBJECT_NAME":"STARLINK-2424","EPOCH":"2021-09-08T21:56:55.212288","ELEMENT_SET_NO":"999","PERIOD":"95.592","INCLINATION":"53.0560","REF_FRAME":"TEME","ARG_OF_PERICENTER":"87.6637","FILE":"3111252","CENTER_NAME":"EARTH","RA_OF_ASC_NODE":"66.3149","MEAN_MOTION":"15.06394582","MEAN_ANOMALY":"272.4582","LAUNCH_DATE":"2021-03-11","COUNTRY_CODE":"US","DECAY_DATE":null,"MEAN_ELEMENT_THEORY":"SGP4","APOAPSIS":"548.623","NORAD_CAT_ID":"47834","OBJECT_ID":"2021-018AZ","ECCENTRICITY":"0.00020110","GP_ID":"184349313","MEAN_MOTION_DDOT":"0.0000000000000","SITE":"AFETR","TLE_LINE2":"2 47834  53.0560  66.3149 0002011  87.6637 272.4582 15.06394582 29045","MEAN_MOTION_DOT":"-0.00001039","OBJECT_TYPE":"PAYLOAD","PERIAPSIS":"545.837","SEMIMAJOR_AXIS":"6925.365","CLASSIFICATION_TYPE":"U","REV_AT_EPOCH":"2904"},{"PERIAPSIS":"545.851","OBJECT_TYPE":"PAYLOAD","MEAN_MOTION_DDOT":"0.0000000000000","MEAN_MOTION_DOT":"0.00000902","TLE_LINE2":"2 47835  53.0545  72.4711 0001949  84.2556 275.8656 15.06404192 28872","SITE":"AFETR","SEMIMAJOR_AXIS":"6925.336","CLASSIFICATION_TYPE":"U","REV_AT_EPOCH":"2887","LAUNCH_DATE":"2021-03-11","MEAN_ANOMALY":"275.8656","MEAN_MOTION":"15.06404192","GP_ID":"184347561","ECCENTRICITY":"0.00019490","OBJECT_ID":"2021-018BA","MEAN_ELEMENT_THEORY":"SGP4","DECAY_DATE":null,"APOAPSIS":"548.550","NORAD_CAT_ID":"47835","COUNTRY_CODE":"US","REF_FRAME":"TEME","INCLINATION":"53.0545","ELEMENT_SET_NO":"999","PERIOD":"95.592","RA_OF_ASC_NODE":"72.4711","CENTER_NAME":"EARTH","ARG_OF_PERICENTER":"84.2556","FILE":"3111252","TLE_LINE1":"1 47835U 21018BA  21251.66430855  .00000902  00000-0  79415-4 0  9998","RCS_SIZE":"LARGE","BSTAR":"0.00007941500000","EPHEMERIS_TYPE":"0","OBJECT_NAME":"STARLINK-2425","EPOCH":"2021-09-08T15:56:36.258720","TIME_SYSTEM":"UTC"},{"FILE":"3111252","ARG_OF_PERICENTER":"82.1635","CENTER_NAME":"EARTH","RA_OF_ASC_NODE":"66.5615","PERIOD":"95.592","ELEMENT_SET_NO":"999","INCLINATION":"53.0547","REF_FRAME":"TEME","TIME_SYSTEM":"UTC","EPOCH":"2021-09-08T20:35:55.638240","OBJECT_NAME":"STARLINK-2426","EPHEMERIS_TYPE":"0","TLE_LINE1":"1 47836U 21018BB  21251.85828285  .00001143  00000-0  95631-4 0  9994","RCS_SIZE":"LARGE","BSTAR":"0.00009563100000","REV_AT_EPOCH":"2898","SEMIMAJOR_AXIS":"6925.353","CLASSIFICATION_TYPE":"U","MEAN_MOTION_DOT":"0.00001143","TLE_LINE2":"2 47836  53.0547  66.5615 0002134  82.1635 277.9596 15.06398486 28980","SITE":"AFETR","MEAN_MOTION_DDOT":"0.0000000000000","OBJECT_TYPE":"PAYLOAD","PERIAPSIS":"545.740","COUNTRY_CODE":"US","APOAPSIS":"548.696","NORAD_CAT_ID":"47836","DECAY_DATE":null,"MEAN_ELEMENT_THEORY":"SGP4","OBJECT_ID":"2021-018BB","GP_ID":"184347811","ECCENTRICITY":"0.00021340","MEAN_MOTION":"15.06398486","MEAN_ANOMALY":"277.9596","LAUNCH_DATE":"2021-03-11"},{"EPOCH":"2021-09-08T21:01:10.784064","OBJECT_NAME":"STARLINK-2427","TIME_SYSTEM":"UTC","EPHEMERIS_TYPE":"0","TLE_LINE1":"1 47837U 21018BC  21251.87581926 -.00000200  00000-0  54543-5 0  9997","RCS_SIZE":"LARGE","BSTAR":"0.00000545430000","FILE":"3111252","ARG_OF_PERICENTER":"99.5054","RA_OF_ASC_NODE":"46.4820","CENTER_NAME":"EARTH","INCLINATION":"53.0584","PERIOD":"95.593","ELEMENT_SET_NO":"999","REF_FRAME":"TEME","NORAD_CAT_ID":"47837","APOAPSIS":"548.098","MEAN_ELEMENT_THEORY":"SGP4","DECAY_DATE":null,"COUNTRY_CODE":"US","GP_ID":"184349063","ECCENTRICITY":"0.00012400","OBJECT_ID":"2021-018BC","MEAN_ANOMALY":"260.6075","MEAN_MOTION":"15.06391541","LAUNCH_DATE":"2021-03-11","REV_AT_EPOCH":"2927","CLASSIFICATION_TYPE":"U","SEMIMAJOR_AXIS":"6925.374","MEAN_MOTION_DOT":"-0.00000200","TLE_LINE2":"2 47837  53.0584  46.4820 0001240  99.5054 260.6075 15.06391541 29270","SITE":"AFETR","MEAN_MOTION_DDOT":"0.0000000000000","PERIAPSIS":"546.381","OBJECT_TYPE":"PAYLOAD"},{"LAUNCH_DATE":"2021-03-11","MEAN_MOTION":"15.06406393","MEAN_ANOMALY":"273.0006","OBJECT_ID":"2021-018BD","GP_ID":"184348813","ECCENTRICITY":"0.00018800","COUNTRY_CODE":"US","NORAD_CAT_ID":"47838","APOAPSIS":"548.496","DECAY_DATE":null,"MEAN_ELEMENT_THEORY":"SGP4","OBJECT_TYPE":"PAYLOAD","PERIAPSIS":"545.892","SITE":"AFETR","TLE_LINE2":"2 47838  53.0568  66.4418 0001880  87.1198 273.0006 15.06406393 28981","MEAN_MOTION_DOT":"-0.00000696","MEAN_MOTION_DDOT":"0.0000000000000","REV_AT_EPOCH":"2898","CLASSIFICATION_TYPE":"U","SEMIMAJOR_AXIS":"6925.329","TLE_LINE1":"1 47838U 21018BD  21251.88871823 -.00000696  00000-0 -27794-4 0  9994","RCS_SIZE":"LARGE","BSTAR":"-0.00002779400000","EPHEMERIS_TYPE":"0","TIME_SYSTEM":"UTC","EPOCH":"2021-09-08T21:19:45.255072","OBJECT_NAME":"STARLINK-2429","REF_FRAME":"TEME","PERIOD":"95.592","ELEMENT_SET_NO":"999","INCLINATION":"53.0568","RA_OF_ASC_NODE":"66.4418","CENTER_NAME":"EARTH","FILE":"3111252","ARG_OF_PERICENTER":"87.1198"},{"TLE_LINE1":"1 47839U 21018BE  21251.84284063  .00001177  00000-0  55395-4 0  9996","RCS_SIZE":"LARGE","BSTAR":"0.00005539500000","EPHEMERIS_TYPE":"0","TIME_SYSTEM":"UTC","EPOCH":"2021-09-08T20:13:41.430432","OBJECT_NAME":"STARLINK-2431","REF_FRAME":"TEME","PERIOD":"94.249","ELEMENT_SET_NO":"999","INCLINATION":"53.0559","RA_OF_ASC_NODE":"45.7533","CENTER_NAME":"EARTH","FILE":"3111252","ARG_OF_PERICENTER":"83.6514","LAUNCH_DATE":"2021-03-11","MEAN_MOTION":"15.27862356","MEAN_ANOMALY":"276.4644","OBJECT_ID":"2021-018BE","ECCENTRICITY":"0.00014030","GP_ID":"184348062","COUNTRY_CODE":"US","NORAD_CAT_ID":"47839","APOAPSIS":"483.168","MEAN_ELEMENT_THEORY":"SGP4","DECAY_DATE":null,"OBJECT_TYPE":"PAYLOAD","PERIAPSIS":"481.243","SITE":"AFETR","TLE_LINE2":"2 47839  53.0559  45.7533 0001403  83.6514 276.4644 15.27862356 29281","MEAN_MOTION_DOT":"0.00001177","MEAN_MOTION_DDOT":"0.0000000000000","REV_AT_EPOCH":"2928","CLASSIFICATION_TYPE":"U","SEMIMAJOR_AXIS":"6860.341"},{"OBJECT_NAME":"STARLINK-2432","EPOCH":"2021-09-08T20:39:57.370752","TIME_SYSTEM":"UTC","RCS_SIZE":"LARGE","TLE_LINE1":"1 47840U 21018BF  21251.86108068 -.00000853  00000-0 -38384-4 0  9991","BSTAR":"-0.00003838400000","EPHEMERIS_TYPE":"0","RA_OF_ASC_NODE":"46.5565","CENTER_NAME":"EARTH","ARG_OF_PERICENTER":"114.4389","FILE":"3111252","REF_FRAME":"TEME","INCLINATION":"53.0538","ELEMENT_SET_NO":"999","PERIOD":"95.592","ECCENTRICITY":"0.00018410","GP_ID":"184348312","OBJECT_ID":"2021-018BF","DECAY_DATE":null,"MEAN_ELEMENT_THEORY":"SGP4","APOAPSIS":"548.474","NORAD_CAT_ID":"47840","COUNTRY_CODE":"US","LAUNCH_DATE":"2021-03-11","MEAN_ANOMALY":"245.6792","MEAN_MOTION":"15.06404616","SEMIMAJOR_AXIS":"6925.334","CLASSIFICATION_TYPE":"U","REV_AT_EPOCH":"2926","PERIAPSIS":"545.924","OBJECT_TYPE":"PAYLOAD","MEAN_MOTION_DDOT":"0.0000000000000","MEAN_MOTION_DOT":"-0.00000853","TLE_LINE2":"2 47840  53.0538  46.5565 0001841 114.4389 245.6792 15.06404616 29261","SITE":"AFETR"}];
